OBJECT_NAME,OBJECT_ID,EPOCH,MEAN_MOTION,ECCENTRICITY,INCLINATION,RA_OF_ASC_NODE,ARG_OF_PERICENTER,MEAN_ANOMALY,EPHEMERIS_TYPE,CLASSIFICATION_TYPE,NORAD_CAT_ID,ELEMENT_SET_NO,REV_AT_EPOCH,BSTAR,MEAN_MOTION_DOT,MEAN_MOTION_DDOT
STARLINK-31293,2024-027X,2026-07-12T06:45:27.355968,15.31696779,.00016565,53.1622,90.2119,83.2225,276.8965,0,U,58952,999,13641,-.89345017E-4,-.3137E-4,0
HBTSS-SV2,2024-028A,2026-07-12T05:23:39.243264,13.70476721,.00189863,39.9916,288.8694,20.6626,339.4885,0,U,58955,999,12050,.12620929E-3,.35E-6,0
RAPTOR4,2024-028B,2026-07-08T09:39:09.593568,13.71679129,.00166969,40.0019,306.8633,356.0875,3.9739,0,U,58956,999,11996,.60943067E-4,-.23E-6,0
RAPTOR1,2024-028C,2026-07-08T15:12:36.355104,13.72412867,.00116523,39.9918,305.1193,12.1843,347.9184,0,U,58957,999,12000,.48085707E-4,-.34E-6,0
RAPTOR3,2024-028D,2026-07-12T07:40:28.262784,13.70487281,.00106903,39.9913,287.8953,36.5229,323.6245,0,U,58958,999,12051,.31397601E-4,-.5E-6,0
RAPTOR2,2024-028E,2026-07-12T06:45:43.433280,13.70558206,.00108366,39.9911,287.6439,38.5778,321.5741,0,U,58959,999,12051,.43351932E-4,-.39E-6,0
HBTSS-SV1,2024-028F,2026-07-11T20:28:46.021152,14.98040841,.00106341,39.9901,341.1028,3.6070,356.4798,0,U,58960,999,11088,.23150372E-3,.2642E-4,0
STARLINK-31373,2024-031A,2026-07-11T19:52:38.991648,15.30427586,.00030244,53.1599,79.7833,66.7345,293.3974,0,U,58965,999,13554,.1004728E-2,.29729E-3,0
STARLINK-31449,2024-031B,2026-07-11T19:49:53.171040,15.30193510,.00009726,53.1598,79.7696,70.1224,289.9882,0,U,58966,999,13554,.452225E-6,-.346E-5,0
STARLINK-31314,2024-031C,2026-07-11T02:44:25.279008,15.30195051,.00011875,53.1612,83.1432,96.2144,263.8992,0,U,58967,999,13543,.16948218E-4,.143E-5,0
STARLINK-31356,2024-031D,2026-07-12T00:16:47.036928,15.34390911,.00013991,53.1610,50.9099,108.7981,251.3173,0,U,58968,999,13596,.44981826E-4,.1143E-4,0
STARLINK-31335,2024-031E,2026-07-12T02:33:56.463264,15.34393164,.00012473,53.1602,74.4232,94.8453,265.2692,0,U,58969,999,13564,.67091028E-4,.1891E-4,0
STARLINK-31368,2024-031F,2026-07-11T19:57:29.795904,15.30188090,.00014503,53.1621,79.8118,63.4960,296.6190,0,U,58970,999,13554,.18401604E-4,.186E-5,0
STARLINK-31333,2024-031G,2026-07-11T21:05:04.610112,15.30191301,.00012662,53.1589,67.3094,108.0758,252.0380,0,U,58971,999,13572,.83709552E-4,.212E-4,0
STARLINK-31351,2024-031H,2026-07-12T07:20:38.079456,15.31483844,.00006857,53.1619,77.7838,133.0189,227.0870,0,U,58972,999,13560,.22560837E-2,.69827E-3,0
STARLINK-31365,2024-031J,2026-07-12T02:14:22.181856,15.34394790,.00014797,53.1603,78.5894,92.7881,267.3291,0,U,58973,999,13558,.67893043E-4,.1918E-4,0
STARLINK-31361,2024-031K,2026-07-12T00:00:00.999648,15.34379282,.00001149,53.1601,79.0947,80.5739,88.9500,0,U,58974,999,578,.35393666E-3,.11593E-3,0
STARLINK-31369,2024-031L,2026-07-11T11:58:05.031840,15.34389272,.00014178,53.1604,81.2749,130.3164,229.7963,0,U,58975,999,13547,-.18811373E-4,-.1012E-4,0
STARLINK-31324,2024-031M,2026-07-12T04:31:00.833376,15.30773726,.00015576,53.1586,78.4706,60.1297,299.9859,0,U,58976,999,13557,.25224376E-2,.76471E-3,0
STARLINK-31358,2024-031N,2026-07-11T19:54:26.389440,15.30194661,.0001495,53.1596,79.7702,112.3233,247.7927,0,U,58977,999,13552,-.2162823E-5,-.423E-5,0
STARLINK-31355,2024-031P,2026-07-12T06:00:02.000160,15.34399255,.00013926,53.1590,78.0856,89.7805,300.1123,0,U,58978,999,586,.12961408E-3,.4005E-4,0
STARLINK-31380,2024-031Q,2026-07-11T21:36:00.152064,15.34393616,.0001612,53.1609,79.5171,114.1785,245.9386,0,U,58979,999,13553,-.10627E-5,-.412E-5,0
STARLINK-31353,2024-031R,2026-07-12T02:35:34.860768,15.34375719,.0001154,53.1614,78.6817,95.2096,264.9038,0,U,58980,999,13556,-.17160567E-4,-.955E-5,0
STARLINK-31339,2024-031S,2026-07-11T02:31:36.107328,15.34393524,.00011608,53.1586,81.6685,88.2012,271.9124,0,U,58981,999,13543,-.18516138E-4,-.1002E-4,0
STARLINK-31384,2024-031U,2026-07-11T21:08:03.744960,15.34386672,.0001438,53.1601,77.9745,116.0718,244.0433,0,U,58983,999,13555,-.7744E-5,-.638E-5,0
STARLINK-31379,2024-031V,2026-07-11T23:31:01.416864,15.34390859,.0001861,53.1620,79.3005,97.5948,262.5267,0,U,58984,999,13554,.403605E-5,-.24E-5,0
STARLINK-31385,2024-031W,2026-07-12T01:06:12.639168,15.34385053,.00018628,53.1604,74.7062,86.0197,274.1018,0,U,58985,999,13561,.38657761E-4,.929E-5,0
STARLINK-31229,2024-031X,2026-07-12T02:29:31.244640,15.34390226,.00013606,53.1611,78.6551,90.9181,269.1978,0,U,58986,999,13556,-.2673265E-5,-.467E-5,0
CE-SAT-IE,2024-032A,2026-07-11T23:22:54.293664,14.68306781,.0003072,97.9953,247.1042,30.2297,329.9085,0,U,58987,999,12847,.39652E-4,.181E-5,0
TIRSAT,2024-032C,2026-07-11T15:19:52.325184,14.72517762,.00062369,97.9954,250.5883,76.1072,284.0829,0,U,58989,999,12868,.11161806E-3,.66E-5,0
INSAT-3DS,2024-033A,2026-07-12T03:29:38.637312,1.00271233,.00010332,0.0999,265.3458,226.0061,293.1741,0,U,58990,999,4731,0,-.153E-5,0
ADRAS-J,2024-034A,2026-07-12T06:59:44.850048,15.52208042,.01430122,98.2176,227.8150,23.7649,337.0118,0,U,58992,999,13147,.96522146E-3,.91572E-3,0
MERAH PUTIH 2,2024-035A,2026-07-12T05:29:37.726368,1.00271635,.00010496,0.0151,77.4509,37.0615,10.9760,0,U,58995,999,884,0,-.355E-5,0
AAC-AIS-SAT3,2023-174DJ,2026-07-12T06:32:42.535392,14.84882290,.00053811,97.6227,240.8478,226.4372,133.6397,0,U,58997,999,14487,.20259147E-3,.1672E-4,0
STARLINK-31468,2024-036A,2026-07-11T10:29:57.660288,15.30200137,.00012422,53.1570,223.0524,96.4310,263.6832,0,U,58998,999,13428,.27397546E-4,.452E-5,0
STARLINK-31440,2024-036B,2026-07-12T05:21:38.535552,15.30196789,.00011108,53.1572,219.4181,85.0329,275.0799,0,U,58999,999,13358,.11593814E-3,.3076E-4,0
STARLINK-31529,2024-036C,2026-07-11T10:58:04.748160,15.30185131,.00011968,53.1592,221.0453,92.5642,267.5496,0,U,59000,999,13422,.46340074E-4,.1013E-4,0
STARLINK-31431,2024-036E,2026-07-12T01:43:18.477696,15.30188885,.00013971,53.1589,220.6080,66.8976,293.2172,0,U,59002,999,13436,.42665545E-4,.904E-5,0
STARLINK-31435,2024-036G,2026-07-11T16:50:45.576096,15.30186529,.00011884,53.1570,221.8513,78.4171,281.6963,0,U,59004,999,13432,.13985629E-3,.3783E-4,0
STARLINK-31484,2024-036H,2026-07-11T02:48:50.329152,15.30191428,.00008136,53.1607,224.6028,55.6074,304.5003,0,U,59005,999,13422,-.57489213E-4,-.2061E-4,0
STARLINK-31450,2024-036J,2026-07-11T01:25:24.174048,15.30201219,.00010548,53.1598,224.9475,106.0828,254.0289,0,U,59006,999,13421,-.71395491E-4,-.2473E-4,0
STARLINK-31456,2024-036K,2026-07-12T02:24:11.009088,15.30197967,.00010997,53.1590,220.0684,96.1598,263.9528,0,U,59007,999,13437,.4972435E-4,.1114E-4,0
STARLINK-31460,2024-036L,2026-07-12T03:06:43.405056,15.30194053,.0000868,53.1598,220.2574,63.1392,296.9698,0,U,59008,999,13437,.3206034E-5,-.264E-5,0
STARLINK-31488,2024-036M,2026-07-11T13:45:37.954080,15.30218023,.00016693,53.1562,222.4661,97.7246,262.3944,0,U,59009,999,13429,.10957735E-3,.2889E-4,0
STARLINK-31528,2024-036N,2026-07-11T10:22:31.462176,15.30190342,.00009952,53.1587,223.7246,90.4650,269.6465,0,U,59010,999,13426,.75709941E-4,.1883E-4,0
STARLINK-31491,2024-036P,2026-07-12T02:04:36.238656,15.30189812,.00012436,53.1573,220.6894,103.2779,256.8360,0,U,59011,999,13436,.21146848E-3,.5907E-4,0
STARLINK-31465,2024-036Q,2026-07-12T01:56:58.729056,15.30193547,.00013199,53.1581,220.6589,74.3467,285.7679,0,U,59012,999,13436,.18138096E-4,.178E-5,0
STARLINK-31389,2024-036R,2026-07-12T01:56:08.585088,15.31701938,.0001011,53.1600,220.6562,74.0619,286.0494,0,U,59013,999,13437,.26752124E-4,.465E-5,0
STARLINK-31454,2024-036S,2026-07-11T10:11:53.841408,15.30198707,.00010586,53.1579,223.6722,91.3148,268.7974,0,U,59014,999,13426,.614111E-5,-.177E-5,0
STARLINK-31521,2024-036T,2026-07-11T10:10:22.069056,15.30195490,.00012179,53.1586,223.6651,72.6901,287.4233,0,U,59015,999,13426,-.11085159E-4,-.687E-5,0
STARLINK-31526,2024-036U,2026-07-11T10:06:36.389664,15.31704393,.00006106,53.1601,197.3281,75.0245,285.0824,0,U,59016,999,13463,.40426368E-4,.89E-5,0
STARLINK-31406,2024-036V,2026-07-12T06:14:00.063744,15.34400032,.00014343,53.1586,204.0318,87.4817,272.6350,0,U,59017,999,13461,.36436593E-4,.855E-5,0
STARLINK-31527,2024-036W,2026-07-12T01:37:12.918432,15.30199558,.00023072,53.1573,220.5807,92.0419,268.0846,0,U,59018,999,13436,.1445722E-5,-.317E-5,0
STARLINK-31436,2024-036X,2026-07-10T14:02:54.000672,15.30195649,.0001259,53.1454,227.6663,70.5929,289.5207,0,U,59019,999,13413,.25154E-3,.7097E-4,0
TJS-11,2024-037A,2026-07-11T22:38:53.836224,1.00275374,.0001825,4.1676,327.3819,147.2664,267.4454,0,U,59020,999,883,0,-.355E-5,0
STARLINK-30996,2024-038A,2026-07-11T23:05:38.968512,15.27596821,.00007446,42.9995,45.2329,343.9270,16.1558,0,U,59023,999,13513,.17991715E-3,.4695E-4,0
STARLINK-31006,2024-038B,2026-07-11T11:38:52.361664,15.27575912,.0001924,43.0024,357.4777,287.9745,72.0897,0,U,59024,999,13427,-.26744828E-4,-.998E-5,0
STARLINK-31178,2024-038C,2026-07-11T23:20:27.469824,15.27572991,.00003339,42.9991,45.3084,17.7237,342.3626,0,U,59025,999,13365,-.4944889E-5,-.398E-5,0
STARLINK-30863,2024-038E,2026-07-11T23:51:53.879040,15.27578649,.00005508,42.9981,45.4585,289.5464,70.5328,0,U,59027,999,13365,-.9105851E-5,-.512E-5,0
STARLINK-31206,2024-038F,2026-07-11T10:49:46.827552,15.27575991,.00023005,43.0065,343.0818,291.3270,68.7336,0,U,59028,999,13445,.18820596E-4,.255E-5,0
STARLINK-31224,2024-038G,2026-07-12T00:13:53.336640,15.27578098,.00012696,43.0016,44.7199,273.2260,86.8446,0,U,59029,999,13377,.36497608E-4,.742E-5,0
STARLINK-31186,2024-038H,2026-07-11T23:25:59.801376,15.27573640,.00014123,43.0070,45.3326,270.8977,89.1713,0,U,59030,999,13376,-.38864371E-4,-.1331E-4,0
STARLINK-31211,2024-038J,2026-07-12T00:06:29.097216,15.27589346,.0001019,43.0038,44.6810,292.2770,67.7973,0,U,59031,999,13366,-.19164287E-4,-.789E-5,0
STARLINK-30862,2024-038K,2026-07-11T23:40:51.046752,15.27564512,.00009253,43.0036,34.2151,319.1427,40.9355,0,U,59032,999,13378,-.92984231E-4,-.2818E-4,0
STARLINK-31210,2024-038L,2026-07-11T23:10:02.574048,15.27569982,.00015256,43.0045,41.8054,265.5549,94.5129,0,U,59033,999,13386,.26154841E-4,.457E-5,0
